[{"OBJECT_NAME":"STARLINK-6362","OBJECT_ID":"2023-099Y","EPOCH":"2026-03-09T12:13:02.574048","MEAN_MOTION":15.0253626,"ECCENTRICITY":0.00019407,"INCLINATION":43.0027,"RA_OF_ASC_NODE":237.4225,"ARG_OF_PERICENTER":274.0485,"MEAN_ANOMALY":86.0135,"EPHEMERIS_TYPE":0,"CLASSIFICATION_TYPE":"U","NORAD_CAT_ID":57350,"ELEMENT_SET_NO":999,"REV_AT_EPOCH":14623,"BSTAR":-0.00020566981,"MEAN_MOTION_DOT":-2.981e-5,"MEAN_MOTION_DDOT":0},{"OBJECT_NAME":"COSMOS 249 DEB","OBJECT_ID":"1968-091CY","EPOCH":"2026-03-09T21:07:59.374848","MEAN_MOTION":14.52283222,"ECCENTRICITY":0.03386329,"INCLINATION":62.3952,"RA_OF_ASC_NODE":260.6441,"ARG_OF_PERICENTER":176.0549,"MEAN_ANOMALY":184.3323,"EPHEMERIS_TYPE":0,"CLASSIFICATION_TYPE":"U","NORAD_CAT_ID":15535,"ELEMENT_SET_NO":999,"REV_AT_EPOCH":94239,"BSTAR":0.0018935012,"MEAN_MOTION_DOT":0.00016406,"MEAN_MOTION_DDOT":0}]
